ORBCOMM FM33            
1 25983U 99065D   26022.07336027  .00002589  00000+0  84755-3 0  9991
2 25983  45.0285  37.8192 0006053  80.9949 279.1586 14.40660251367627
ORBCOMM FM36            
1 25984U 99065E   26021.34721847  .00002153  00000+0  73939-3 0  9998
2 25984  45.0383 136.5016 0002844 285.6908  74.3627 14.38828670365832
ORBCOMM FM35            
1 25985U 99065F   26022.32221902  .00002256  00000+0  78966-3 0  9994
2 25985  45.0388 138.7049 0002348  69.5629 290.5472 14.37737079366311
ORBCOMM FM34            
1 25986U 99065G   26021.66504127  .00002017  00000+0  71192-3 0  9993
2 25986  45.0381 142.3013 0002547 346.0929  13.9849 14.37667013366331
ORBCOMM FM38            
1 33060U 08031A   26021.34709402  .00005103  00000+0  65511-3 0  9993
2 33060  48.4406 354.7397 0005118 266.1670  93.8661 14.82476666947105
ORBCOMM FM41            
1 33061U 08031B   26022.31681732  .00004000  00000+0  52490-3 0  9994
2 33061  48.4446 358.6721 0004330 255.5532 245.0245 14.82029436946723
ORBCOMM FM29            
1 33062U 08031C   26022.25879663  .00004000  00000+0  52293-3 0  9991
2 33062  48.4391   6.4536 0005996 253.5840 120.2841 14.82188400946637
ORBCOMM FM39            
1 33063U 08031D   26022.30796257  .00003383  00000+0  46340-3 0  9994
2 33063  48.4400  32.9965 0006767 224.2159 135.8216 14.80602187946251
