<?xml version="1.0" encoding="UTF-8"?>
<ndm xmlns:xsi="http://www.w3.org/2001/XMLSchema-instance" xsi:noNamespaceSchemaLocation="https://sanaregistry.org/r/ndmxml_unqualified/ndmxml-2.0.0-master-2.0.xsd">
<omm id="CCSDS_OMM_VERS" version="2.0">
<header><CREATION_DATE/><ORIGINATOR/></header><body><segment><metadata><OBJECT_NAME>ORBCOMM FM33</OBJECT_NAME><OBJECT_ID>1999-065D</OBJECT_ID><CENTER_NAME>EARTH</CENTER_NAME><REF_FRAME>TEME</REF_FRAME><TIME_SYSTEM>UTC</TIME_SYSTEM><MEAN_ELEMENT_THEORY>SGP4</MEAN_ELEMENT_THEORY></metadata><data><meanElements><EPOCH>2026-01-22T01:45:38.327328</EPOCH><MEAN_MOTION>14.40660251</MEAN_MOTION><ECCENTRICITY>.00060536</ECCENTRICITY><INCLINATION>45.0285</INCLINATION><RA_OF_ASC_NODE>37.8192</RA_OF_ASC_NODE><ARG_OF_PERICENTER>80.9949</ARG_OF_PERICENTER><MEAN_ANOMALY>279.1586</MEAN_ANOMALY></meanElements><tleParameters><EPHEMERIS_TYPE>0</EPHEMERIS_TYPE><CLASSIFICATION_TYPE>U</CLASSIFICATION_TYPE><NORAD_CAT_ID>25983</NORAD_CAT_ID><ELEMENT_SET_NO>999</ELEMENT_SET_NO><REV_AT_EPOCH>36762</REV_AT_EPOCH><BSTAR>.84755049E-3</BSTAR><MEAN_MOTION_DOT>.2589E-4</MEAN_MOTION_DOT><MEAN_MOTION_DDOT>0</MEAN_MOTION_DDOT></tleParameters></data></segment></body></omm>
<omm id="CCSDS_OMM_VERS" version="2.0">
<header><CREATION_DATE/><ORIGINATOR/></header><body><segment><metadata><OBJECT_NAME>ORBCOMM FM36</OBJECT_NAME><OBJECT_ID>1999-065E</OBJECT_ID><CENTER_NAME>EARTH</CENTER_NAME><REF_FRAME>TEME</REF_FRAME><TIME_SYSTEM>UTC</TIME_SYSTEM><MEAN_ELEMENT_THEORY>SGP4</MEAN_ELEMENT_THEORY></metadata><data><meanElements><EPOCH>2026-01-21T08:19:59.675808</EPOCH><MEAN_MOTION>14.38828670</MEAN_MOTION><ECCENTRICITY>.00028442</ECCENTRICITY><INCLINATION>45.0383</INCLINATION><RA_OF_ASC_NODE>136.5016</RA_OF_ASC_NODE><ARG_OF_PERICENTER>285.6908</ARG_OF_PERICENTER><MEAN_ANOMALY>74.3627</MEAN_ANOMALY></meanElements><tleParameters><EPHEMERIS_TYPE>0</EPHEMERIS_TYPE><CLASSIFICATION_TYPE>U</CLASSIFICATION_TYPE><NORAD_CAT_ID>25984</NORAD_CAT_ID><ELEMENT_SET_NO>999</ELEMENT_SET_NO><REV_AT_EPOCH>36583</REV_AT_EPOCH><BSTAR>.73938661E-3</BSTAR><MEAN_MOTION_DOT>.2153E-4</MEAN_MOTION_DOT><MEAN_MOTION_DDOT>0</MEAN_MOTION_DDOT></tleParameters></data></segment></body></omm>
<omm id="CCSDS_OMM_VERS" version="2.0">
<header><CREATION_DATE/><ORIGINATOR/></header><body><segment><metadata><OBJECT_NAME>ORBCOMM FM35</OBJECT_NAME><OBJECT_ID>1999-065F</OBJECT_ID><CENTER_NAME>EARTH</CENTER_NAME><REF_FRAME>TEME</REF_FRAME><TIME_SYSTEM>UTC</TIME_SYSTEM><MEAN_ELEMENT_THEORY>SGP4</MEAN_ELEMENT_THEORY></metadata><data><meanElements><EPOCH>2026-01-22T07:43:59.723328</EPOCH><MEAN_MOTION>14.37737079</MEAN_MOTION><ECCENTRICITY>.00023481</ECCENTRICITY><INCLINATION>45.0388</INCLINATION><RA_OF_ASC_NODE>138.7049</RA_OF_ASC_NODE><ARG_OF_PERICENTER>69.5629</ARG_OF_PERICENTER><MEAN_ANOMALY>290.5472</MEAN_ANOMALY></meanElements><tleParameters><EPHEMERIS_TYPE>0</EPHEMERIS_TYPE><CLASSIFICATION_TYPE>U</CLASSIFICATION_TYPE><NORAD_CAT_ID>25985</NORAD_CAT_ID><ELEMENT_SET_NO>999</ELEMENT_SET_NO><REV_AT_EPOCH>36631</REV_AT_EPOCH><BSTAR>.78965734E-3</BSTAR><MEAN_MOTION_DOT>.2256E-4</MEAN_MOTION_DOT><MEAN_MOTION_DDOT>0</MEAN_MOTION_DDOT></tleParameters></data></segment></body></omm>
<omm id="CCSDS_OMM_VERS" version="2.0">
<header><CREATION_DATE/><ORIGINATOR/></header><body><segment><metadata><OBJECT_NAME>ORBCOMM FM34</OBJECT_NAME><OBJECT_ID>1999-065G</OBJECT_ID><CENTER_NAME>EARTH</CENTER_NAME><REF_FRAME>TEME</REF_FRAME><TIME_SYSTEM>UTC</TIME_SYSTEM><MEAN_ELEMENT_THEORY>SGP4</MEAN_ELEMENT_THEORY></metadata><data><meanElements><EPOCH>2026-01-21T15:57:39.565728</EPOCH><MEAN_MOTION>14.37667013</MEAN_MOTION><ECCENTRICITY>.00025478</ECCENTRICITY><INCLINATION>45.0381</INCLINATION><RA_OF_ASC_NODE>142.3013</RA_OF_ASC_NODE><ARG_OF_PERICENTER>346.0929</ARG_OF_PERICENTER><MEAN_ANOMALY>13.9849</MEAN_ANOMALY></meanElements><tleParameters><EPHEMERIS_TYPE>0</EPHEMERIS_TYPE><CLASSIFICATION_TYPE>U</CLASSIFICATION_TYPE><NORAD_CAT_ID>25986</NORAD_CAT_ID><ELEMENT_SET_NO>999</ELEMENT_SET_NO><REV_AT_EPOCH>36633</REV_AT_EPOCH><BSTAR>.71191555E-3</BSTAR><MEAN_MOTION_DOT>.2017E-4</MEAN_MOTION_DOT><MEAN_MOTION_DDOT>0</MEAN_MOTION_DDOT></tleParameters></data></segment></body></omm>
<omm id="CCSDS_OMM_VERS" version="2.0">
<header><CREATION_DATE/><ORIGINATOR/></header><body><segment><metadata><OBJECT_NAME>ORBCOMM FM38</OBJECT_NAME><OBJECT_ID>2008-031A</OBJECT_ID><CENTER_NAME>EARTH</CENTER_NAME><REF_FRAME>TEME</REF_FRAME><TIME_SYSTEM>UTC</TIME_SYSTEM><MEAN_ELEMENT_THEORY>SGP4</MEAN_ELEMENT_THEORY></metadata><data><meanElements><EPOCH>2026-01-21T08:19:48.923328</EPOCH><MEAN_MOTION>14.82476666</MEAN_MOTION><ECCENTRICITY>.00051187</ECCENTRICITY><INCLINATION>48.4406</INCLINATION><RA_OF_ASC_NODE>354.7397</RA_OF_ASC_NODE><ARG_OF_PERICENTER>266.1670</ARG_OF_PERICENTER><MEAN_ANOMALY>93.8661</MEAN_ANOMALY></meanElements><tleParameters><EPHEMERIS_TYPE>0</EPHEMERIS_TYPE><CLASSIFICATION_TYPE>U</CLASSIFICATION_TYPE><NORAD_CAT_ID>33060</NORAD_CAT_ID><ELEMENT_SET_NO>999</ELEMENT_SET_NO><REV_AT_EPOCH>94710</REV_AT_EPOCH><BSTAR>.6551104E-3</BSTAR><MEAN_MOTION_DOT>.5103E-4</MEAN_MOTION_DOT><MEAN_MOTION_DDOT>0</MEAN_MOTION_DDOT></tleParameters></data></segment></body></omm>
<omm id="CCSDS_OMM_VERS" version="2.0">
<header><CREATION_DATE/><ORIGINATOR/></header><body><segment><metadata><OBJECT_NAME>ORBCOMM FM41</OBJECT_NAME><OBJECT_ID>2008-031B</OBJECT_ID><CENTER_NAME>EARTH</CENTER_NAME><REF_FRAME>TEME</REF_FRAME><TIME_SYSTEM>UTC</TIME_SYSTEM><MEAN_ELEMENT_THEORY>SGP4</MEAN_ELEMENT_THEORY></metadata><data><meanElements><EPOCH>2026-01-22T07:36:13.016448</EPOCH><MEAN_MOTION>14.82029436</MEAN_MOTION><ECCENTRICITY>.000433</ECCENTRICITY><INCLINATION>48.4446</INCLINATION><RA_OF_ASC_NODE>358.6721</RA_OF_ASC_NODE><ARG_OF_PERICENTER>255.5532</ARG_OF_PERICENTER><MEAN_ANOMALY>245.0245</MEAN_ANOMALY></meanElements><tleParameters><EPHEMERIS_TYPE>0</EPHEMERIS_TYPE><CLASSIFICATION_TYPE>U</CLASSIFICATION_TYPE><NORAD_CAT_ID>33061</NORAD_CAT_ID><ELEMENT_SET_NO>999</ELEMENT_SET_NO><REV_AT_EPOCH>94672</REV_AT_EPOCH><BSTAR>.52489974E-3</BSTAR><MEAN_MOTION_DOT>.4E-4</MEAN_MOTION_DOT><MEAN_MOTION_DDOT>0</MEAN_MOTION_DDOT></tleParameters></data></segment></body></omm>
<omm id="CCSDS_OMM_VERS" version="2.0">
<header><CREATION_DATE/><ORIGINATOR/></header><body><segment><metadata><OBJECT_NAME>ORBCOMM FM29</OBJECT_NAME><OBJECT_ID>2008-031C</OBJECT_ID><CENTER_NAME>EARTH</CENTER_NAME><REF_FRAME>TEME</REF_FRAME><TIME_SYSTEM>UTC</TIME_SYSTEM><MEAN_ELEMENT_THEORY>SGP4</MEAN_ELEMENT_THEORY></metadata><data><meanElements><EPOCH>2026-01-22T06:12:40.028832</EPOCH><MEAN_MOTION>14.82188400</MEAN_MOTION><ECCENTRICITY>.00059966</ECCENTRICITY><INCLINATION>48.4391</INCLINATION><RA_OF_ASC_NODE>6.4536</RA_OF_ASC_NODE><ARG_OF_PERICENTER>253.5840</ARG_OF_PERICENTER><MEAN_ANOMALY>120.2841</MEAN_ANOMALY></meanElements><tleParameters><EPHEMERIS_TYPE>0</EPHEMERIS_TYPE><CLASSIFICATION_TYPE>U</CLASSIFICATION_TYPE><NORAD_CAT_ID>33062</NORAD_CAT_ID><ELEMENT_SET_NO>999</ELEMENT_SET_NO><REV_AT_EPOCH>94663</REV_AT_EPOCH><BSTAR>.5229287E-3</BSTAR><MEAN_MOTION_DOT>.4E-4</MEAN_MOTION_DOT><MEAN_MOTION_DDOT>0</MEAN_MOTION_DDOT></tleParameters></data></segment></body></omm>
<omm id="CCSDS_OMM_VERS" version="2.0">
<header><CREATION_DATE/><ORIGINATOR/></header><body><segment><metadata><OBJECT_NAME>ORBCOMM FM39</OBJECT_NAME><OBJECT_ID>2008-031D</OBJECT_ID><CENTER_NAME>EARTH</CENTER_NAME><REF_FRAME>TEME</REF_FRAME><TIME_SYSTEM>UTC</TIME_SYSTEM><MEAN_ELEMENT_THEORY>SGP4</MEAN_ELEMENT_THEORY></metadata><data><meanElements><EPOCH>2026-01-22T07:23:27.966048</EPOCH><MEAN_MOTION>14.80602187</MEAN_MOTION><ECCENTRICITY>.0006767</ECCENTRICITY><INCLINATION>48.4400</INCLINATION><RA_OF_ASC_NODE>32.9965</RA_OF_ASC_NODE><ARG_OF_PERICENTER>224.2159</ARG_OF_PERICENTER><MEAN_ANOMALY>135.8216</MEAN_ANOMALY></meanElements><tleParameters><EPHEMERIS_TYPE>0</EPHEMERIS_TYPE><CLASSIFICATION_TYPE>U</CLASSIFICATION_TYPE><NORAD_CAT_ID>33063</NORAD_CAT_ID><ELEMENT_SET_NO>999</ELEMENT_SET_NO><REV_AT_EPOCH>94625</REV_AT_EPOCH><BSTAR>.46340128E-3</BSTAR><MEAN_MOTION_DOT>.3383E-4</MEAN_MOTION_DOT><MEAN_MOTION_DDOT>0</MEAN_MOTION_DDOT></tleParameters></data></segment></body></omm>

</ndm>
